line1,line2,validFromUtcTime
1 00000U 00000E   26001.00000000  .00000000  00000-0  27772-4 0    01,2 00000  88.9606 165.3357 0009941 268.9272 203.4343 13.55252542    01,2026-01-01T00:00:00Z
1 00000U 00000E   26002.00000000  .00000000  00000-0  27772-4 0    02,2 00000  88.9606 165.2299 0009941 266.0167  42.3419 13.55252581    04,2026-01-02T00:00:00Z
